CCSDS_OMM_VERS = 2.0
CREATION_DATE  = 
ORIGINATOR     = 

OBJECT_NAME    = STARLINK-36954
OBJECT_ID      = 2026-041T
CENTER_NAME    = EARTH
REF_FRAME      = TEME
TIME_SYSTEM    = UTC
MEAN_ELEMENT_THEORY = SGP/SGP4

EPOCH          = 2026-03-26T04:31:40.027008
MEAN_MOTION    = 15.75395350
ECCENTRICITY   = .0000774
INCLINATION    = 53.1605
RA_OF_ASC_NODE = 339.7702
ARG_OF_PERICENTER = 117.3680
MEAN_ANOMALY   = 242.7419

EPHEMERIS_TYPE = 0
CLASSIFICATION_TYPE = U
NORAD_CAT_ID   = 68057
ELEMENT_SET_NO = 999
REV_AT_EPOCH   = 382
BSTAR          = .16610828E-2
MEAN_MOTION_DOT = .263886E-2
MEAN_MOTION_DDOT = 0

CCSDS_OMM_VERS = 2.0
CREATION_DATE  = 
ORIGINATOR     = 

OBJECT_NAME    = STARLINK-36899
OBJECT_ID      = 2026-041U
CENTER_NAME    = EARTH
REF_FRAME      = TEME
TIME_SYSTEM    = UTC
MEAN_ELEMENT_THEORY = SGP/SGP4

EPOCH          = 2026-03-26T21:10:37.080768
MEAN_MOTION    = 15.75511487
ECCENTRICITY   = .0000343
INCLINATION    = 53.1608
RA_OF_ASC_NODE = 336.2745
ARG_OF_PERICENTER = 222.7387
MEAN_ANOMALY   = 137.3606

EPHEMERIS_TYPE = 0
CLASSIFICATION_TYPE = U
NORAD_CAT_ID   = 68058
ELEMENT_SET_NO = 999
REV_AT_EPOCH   = 393
BSTAR          = .30108E-2
MEAN_MOTION_DOT = .494839E-2
MEAN_MOTION_DDOT = 0

CCSDS_OMM_VERS = 2.0
CREATION_DATE  = 
ORIGINATOR     = 

OBJECT_NAME    = STARLINK-36917
OBJECT_ID      = 2026-041V
CENTER_NAME    = EARTH
REF_FRAME      = TEME
TIME_SYSTEM    = UTC
MEAN_ELEMENT_THEORY = SGP/SGP4

EPOCH          = 2026-03-26T20:57:04.418784
MEAN_MOTION    = 15.75410725
ECCENTRICITY   = .0000614
INCLINATION    = 53.1587
RA_OF_ASC_NODE = 336.2112
ARG_OF_PERICENTER = 179.3416
MEAN_ANOMALY   = 180.7605

EPHEMERIS_TYPE = 0
CLASSIFICATION_TYPE = U
NORAD_CAT_ID   = 68059
ELEMENT_SET_NO = 999
REV_AT_EPOCH   = 393
BSTAR          = .29032E-2
MEAN_MOTION_DOT = .473823E-2
MEAN_MOTION_DDOT = 0

CCSDS_OMM_VERS = 2.0
CREATION_DATE  = 
ORIGINATOR     = 

OBJECT_NAME    = STARLINK-36959
OBJECT_ID      = 2026-041W
CENTER_NAME    = EARTH
REF_FRAME      = TEME
TIME_SYSTEM    = UTC
MEAN_ELEMENT_THEORY = SGP/SGP4

EPOCH          = 2026-03-26T21:04:04.900800
MEAN_MOTION    = 15.75517392
ECCENTRICITY   = .0000789
INCLINATION    = 53.1594
RA_OF_ASC_NODE = 336.2428
ARG_OF_PERICENTER = 210.0186
MEAN_ANOMALY   = 150.0789

EPHEMERIS_TYPE = 0
CLASSIFICATION_TYPE = U
NORAD_CAT_ID   = 68060
ELEMENT_SET_NO = 999
REV_AT_EPOCH   = 393
BSTAR          = .30184E-2
MEAN_MOTION_DOT = .49627E-2
MEAN_MOTION_DDOT = 0

CCSDS_OMM_VERS = 2.0
CREATION_DATE  = 
ORIGINATOR     = 

OBJECT_NAME    = STARLINK-36915
OBJECT_ID      = 2026-041X
CENTER_NAME    = EARTH
REF_FRAME      = TEME
TIME_SYSTEM    = UTC
MEAN_ELEMENT_THEORY = SGP/SGP4

EPOCH          = 2026-03-26T22:09:17.980128
MEAN_MOTION    = 15.75349302
ECCENTRICITY   = .0000364
INCLINATION    = 53.1599
RA_OF_ASC_NODE = 335.8065
ARG_OF_PERICENTER = 115.6232
MEAN_ANOMALY   = 244.4826

EPHEMERIS_TYPE = 0
CLASSIFICATION_TYPE = U
NORAD_CAT_ID   = 68061
ELEMENT_SET_NO = 999
REV_AT_EPOCH   = 394
BSTAR          = .24165E-2
MEAN_MOTION_DOT = .389241E-2
MEAN_MOTION_DDOT = 0

CCSDS_OMM_VERS = 2.0
CREATION_DATE  = 
ORIGINATOR     = 

OBJECT_NAME    = STARLINK-36952
OBJECT_ID      = 2026-041Y
CENTER_NAME    = EARTH
REF_FRAME      = TEME
TIME_SYSTEM    = UTC
MEAN_ELEMENT_THEORY = SGP/SGP4

EPOCH          = 2026-03-26T21:10:08.709600
MEAN_MOTION    = 15.75289052
ECCENTRICITY   = .0000867
INCLINATION    = 53.1605
RA_OF_ASC_NODE = 336.2711
ARG_OF_PERICENTER = 74.3626
MEAN_ANOMALY   = 285.7490

EPHEMERIS_TYPE = 0
CLASSIFICATION_TYPE = U
NORAD_CAT_ID   = 68062
ELEMENT_SET_NO = 999
REV_AT_EPOCH   = 393
BSTAR          = .22839E-2
MEAN_MOTION_DOT = .365829E-2
MEAN_MOTION_DDOT = 0

CCSDS_OMM_VERS = 2.0
CREATION_DATE  = 
ORIGINATOR     = 

OBJECT_NAME    = STARLINK-37000
OBJECT_ID      = 2026-041Z
CENTER_NAME    = EARTH
REF_FRAME      = TEME
TIME_SYSTEM    = UTC
MEAN_ELEMENT_THEORY = SGP/SGP4

EPOCH          = 2026-03-26T20:00:03.000384
MEAN_MOTION    = 15.75233535
ECCENTRICITY   = .0001009
INCLINATION    = 53.1584
RA_OF_ASC_NODE = 336.3062
ARG_OF_PERICENTER = 119.5251
MEAN_ANOMALY   = 65.5313

EPHEMERIS_TYPE = 0
CLASSIFICATION_TYPE = U
NORAD_CAT_ID   = 68063
ELEMENT_SET_NO = 999
REV_AT_EPOCH   = 513
BSTAR          = .93947E-4
MEAN_MOTION_DOT = .13781E-3
MEAN_MOTION_DDOT = 0

CCSDS_OMM_VERS = 2.0
CREATION_DATE  = 
ORIGINATOR     = 

OBJECT_NAME    = STARLINK-36996
OBJECT_ID      = 2026-041AA
CENTER_NAME    = EARTH
REF_FRAME      = TEME
TIME_SYSTEM    = UTC
MEAN_ELEMENT_THEORY = SGP/SGP4

EPOCH          = 2026-03-26T20:00:03.000384
MEAN_MOTION    = 15.75234289
ECCENTRICITY   = .0001124
INCLINATION    = 53.1593
RA_OF_ASC_NODE = 336.0417
ARG_OF_PERICENTER = 112.1651
MEAN_ANOMALY   = 201.6712

EPHEMERIS_TYPE = 0
CLASSIFICATION_TYPE = U
NORAD_CAT_ID   = 68064
ELEMENT_SET_NO = 999
REV_AT_EPOCH   = 513
BSTAR          = -.38723E-4
MEAN_MOTION_DOT = -.6569E-4
MEAN_MOTION_DDOT = 0

CCSDS_OMM_VERS = 2.0
CREATION_DATE  = 
ORIGINATOR     = 

OBJECT_NAME    = STARLINK-36836
OBJECT_ID      = 2026-041AB
CENTER_NAME    = EARTH
REF_FRAME      = TEME
TIME_SYSTEM    = UTC
MEAN_ELEMENT_THEORY = SGP/SGP4

EPOCH          = 2026-03-25T04:39:00.358560
MEAN_MOTION    = 15.81001064
ECCENTRICITY   = .00013014
INCLINATION    = 53.1589
RA_OF_ASC_NODE = 344.2116
ARG_OF_PERICENTER = 42.0148
MEAN_ANOMALY   = 318.0975

EPHEMERIS_TYPE = 0
CLASSIFICATION_TYPE = U
NORAD_CAT_ID   = 68065
ELEMENT_SET_NO = 999
REV_AT_EPOCH   = 367
BSTAR          = .19041787E-2
MEAN_MOTION_DOT = .395165E-2
MEAN_MOTION_DDOT = 0

CCSDS_OMM_VERS = 2.0
CREATION_DATE  = 
ORIGINATOR     = 

OBJECT_NAME    = STARLINK-36976
OBJECT_ID      = 2026-041AC
CENTER_NAME    = EARTH
REF_FRAME      = TEME
TIME_SYSTEM    = UTC
MEAN_ELEMENT_THEORY = SGP/SGP4

EPOCH          = 2026-03-26T20:57:32.603328
MEAN_MOTION    = 15.75368345
ECCENTRICITY   = .000087
INCLINATION    = 53.1589
RA_OF_ASC_NODE = 336.2112
ARG_OF_PERICENTER = 168.1890
MEAN_ANOMALY   = 191.9151

EPHEMERIS_TYPE = 0
CLASSIFICATION_TYPE = U
NORAD_CAT_ID   = 68066
ELEMENT_SET_NO = 999
REV_AT_EPOCH   = 393
BSTAR          = .21955E-2
MEAN_MOTION_DOT = .352299E-2
MEAN_MOTION_DDOT = 0

CCSDS_OMM_VERS = 2.0
CREATION_DATE  = 
ORIGINATOR     = 

OBJECT_NAME    = STARLINK-36929
OBJECT_ID      = 2026-041AD
CENTER_NAME    = EARTH
REF_FRAME      = TEME
TIME_SYSTEM    = UTC
MEAN_ELEMENT_THEORY = SGP/SGP4

EPOCH          = 2026-03-26T21:03:36.431136
MEAN_MOTION    = 15.75348192
ECCENTRICITY   = .0000886
INCLINATION    = 53.1592
RA_OF_ASC_NODE = 336.2394
ARG_OF_PERICENTER = 129.7252
MEAN_ANOMALY   = 230.3846

EPHEMERIS_TYPE = 0
CLASSIFICATION_TYPE = U
NORAD_CAT_ID   = 68067
ELEMENT_SET_NO = 999
REV_AT_EPOCH   = 393
BSTAR          = .17418E-2
MEAN_MOTION_DOT = .276583E-2
MEAN_MOTION_DDOT = 0

CCSDS_OMM_VERS = 2.0
CREATION_DATE  = 
ORIGINATOR     = 

OBJECT_NAME    = STARLINK-36990
OBJECT_ID      = 2026-041AE
CENTER_NAME    = EARTH
REF_FRAME      = TEME
TIME_SYSTEM    = UTC
MEAN_ELEMENT_THEORY = SGP/SGP4

EPOCH          = 2026-03-26T21:34:48.851328
MEAN_MOTION    = 15.80951170
ECCENTRICITY   = .0001379
INCLINATION    = 53.1592
RA_OF_ASC_NODE = 335.6466
ARG_OF_PERICENTER = 91.5941
MEAN_ANOMALY   = 268.5240

EPHEMERIS_TYPE = 0
CLASSIFICATION_TYPE = U
NORAD_CAT_ID   = 68068
ELEMENT_SET_NO = 999
REV_AT_EPOCH   = 394
BSTAR          = .15407E-2
MEAN_MOTION_DOT = .315907E-2
MEAN_MOTION_DDOT = 0

