STARLINK-36954          
1 68057U 26041T   26085.18865772  .00263886  00000+0  16611-2 0  9993
2 68057  53.1605 339.7702 0000774 117.3680 242.7419 15.75395350  3828
STARLINK-36899          
1 68058U 26041U   26085.88237362  .00494839  00000+0  30108-2 0  9990
2 68058  53.1608 336.2745 0000343 222.7387 137.3606 15.75511487  3938
STARLINK-36917          
1 68059U 26041V   26085.87296781  .00473823  00000+0  29032-2 0  9994
2 68059  53.1587 336.2112 0000614 179.3416 180.7605 15.75410725  3938
STARLINK-36959          
1 68060U 26041W   26085.87783450  .00496270  00000+0  30184-2 0  9991
2 68060  53.1594 336.2428 0000789 210.0186 150.0789 15.75517392  3939
STARLINK-36915          
1 68061U 26041X   26085.92312477  .00389241  00000+0  24165-2 0  9996
2 68061  53.1599 335.8065 0000364 115.6232 244.4826 15.75349302  3943
STARLINK-36952          
1 68062U 26041Y   26085.88204525  .00365829  00000+0  22839-2 0  9998
2 68062  53.1605 336.2711 0000867  74.3626 285.7490 15.75289052  3930
STARLINK-37000          
1 68063U 26041Z   26085.83336806  .00013781  00000+0  93947-4 0  9999
2 68063  53.1584 336.3062 0001009 119.5251  65.5313 15.75233535  5139
STARLINK-36996          
1 68064U 26041AA  26085.83336806 -.00006569  00000+0 -38723-4 0  9999
2 68064  53.1593 336.0417 0001124 112.1651 201.6712 15.75234289  5135
STARLINK-36836          
1 68065U 26041AB  26084.19375415  .00395165  00000+0  19042-2 0  9999
2 68065  53.1589 344.2116 0001301  42.0148 318.0975 15.81001064  3678
STARLINK-36976          
1 68066U 26041AC  26085.87329402  .00352299  00000+0  21955-2 0  9998
2 68066  53.1589 336.2112 0000870 168.1890 191.9151 15.75368345  3934
STARLINK-36929          
1 68067U 26041AD  26085.87750499  .00276583  00000+0  17418-2 0  9993
2 68067  53.1592 336.2394 0000886 129.7252 230.3846 15.75348192  3930
STARLINK-36990          
1 68068U 26041AE  26085.89917652  .00315907  00000+0  15407-2 0  9992
2 68068  53.1592 335.6466 0001379  91.5941 268.5240 15.80951170  3947
